[{"OBJECT_NAME":"STARLINK-2432","OBJECT_ID":"2021-018BF","EPOCH":"2026-03-09T17:50:11.892480","MEAN_MOTION":15.06401384,"ECCENTRICITY":0.00012222,"INCLINATION":53.0558,"RA_OF_ASC_NODE":231.3746,"ARG_OF_PERICENTER":86.2231,"MEAN_ANOMALY":273.8898,"EPHEMERIS_TYPE":0,"CLASSIFICATION_TYPE":"U","NORAD_CAT_ID":47840,"ELEMENT_SET_NO":999,"REV_AT_EPOCH":27688,"BSTAR":3.9720129e-5,"MEAN_MOTION_DOT":3.1e-6,"MEAN_MOTION_DDOT":0},{"OBJECT_NAME":"FENGYUN 1C DEB","OBJECT_ID":"1999-025BRA","EPOCH":"2026-03-07T21:38:03.570144","MEAN_MOTION":15.14550758,"ECCENTRICITY":0.01045185,"INCLINATION":98.8762,"RA_OF_ASC_NODE":52.6466,"ARG_OF_PERICENTER":91.2586,"MEAN_ANOMALY":270.0618,"EPHEMERIS_TYPE":0,"CLASSIFICATION_TYPE":"U","NORAD_CAT_ID":31346,"ELEMENT_SET_NO":999,"REV_AT_EPOCH":773,"BSTAR":0.0014203897,"MEAN_MOTION_DOT":0.00030047,"MEAN_MOTION_DDOT":0}]
